ONEWEB-0665             
1 55825U 23029AF  25070.59060770 -.00000076  00000+0 -23910-3 0  9991
2 55825  87.9068  21.7042 0002209  80.8129 279.3251 13.14502832 98636
ONEWEB-0666             
1 55826U 23029AG  25070.53843609  .00000123  00000+0  27120-3 0  9994
2 55826  87.9333   6.5522 0001459  80.9545 279.1753 13.20771407100086
ONEWEB-0667             
1 55827U 23029AH  25070.53212418  .00000118  00000+0  25786-3 0  9993
2 55827  87.9333   6.4860 0002084  83.9018 276.2353 13.20770920100076
ONEWEB-0669             
1 55828U 23029AJ  25070.52738979  .00000150  00000+0  33593-3 0  9999
2 55828  87.9331   6.5228 0001382 100.3417 259.7872 13.20772176100078
ONEWEB-0670             
1 55829U 23029AK  25070.79675640  .00000009  00000+0 -96724-5 0  9995
2 55829  87.9074  21.6780 0002192  91.2037 268.9343 13.14501739 99373
ONEWEB-0671             
1 55830U 23029AL  25070.42944314  .00000004  00000+0 -21698-4 0  9996
2 55830  87.9204  36.9548 0002176  89.2383 270.8999 13.19724718 97864
ONEWEB-0672             
1 55831U 23029AM  25070.52265173  .00000127  00000+0  27940-3 0  9997
2 55831  87.9332   6.5092 0001527  77.1758 282.9545 13.20771856100071
ONEWEB-0673             
1 55832U 23029AN  25070.63320396  .00000045  00000+0  80130-4 0  9999
2 55832  87.9204  36.8787 0002152  77.6950 282.4423 13.19724420 98609
